[{"OBJECT_NAME":"STARLINK-34529","OBJECT_ID":"2025-158E","EPOCH":"2026-03-09T14:58:30.160416","MEAN_MOTION":15.05656113,"ECCENTRICITY":0.0002377,"INCLINATION":97.6026,"RA_OF_ASC_NODE":293.9861,"ARG_OF_PERICENTER":80.3711,"MEAN_ANOMALY":279.7784,"EPHEMERIS_TYPE":0,"CLASSIFICATION_TYPE":"U","NORAD_CAT_ID":64936,"ELEMENT_SET_NO":999,"REV_AT_EPOCH":3534,"BSTAR":0.00034875,"MEAN_MOTION_DOT":4.976e-5,"MEAN_MOTION_DDOT":0},{"OBJECT_NAME":"DMSP 5D-2 F13 DEB","OBJECT_ID":"1995-015HF","EPOCH":"2026-03-08T15:33:20.356128","MEAN_MOTION":15.01113693,"ECCENTRICITY":0.00168904,"INCLINATION":98.8624,"RA_OF_ASC_NODE":112.9575,"ARG_OF_PERICENTER":188.2899,"MEAN_ANOMALY":171.8045,"EPHEMERIS_TYPE":0,"CLASSIFICATION_TYPE":"U","NORAD_CAT_ID":42289,"ELEMENT_SET_NO":999,"REV_AT_EPOCH":56056,"BSTAR":0.014483506,"MEAN_MOTION_DOT":0.00190863,"MEAN_MOTION_DDOT":0}]
